{
  "type": "FeatureCollection",
  "features": [
    {
      "type": "Feature",
      "properties": {
        "norad_id": 35052,
        "name": "IRIDIUM 33 DEB",
        "group": "iridium-33-debris",
        "lat": 37.69240094325817,
        "lon": -163.7406622493123,
        "alt_km": 756.9375147841283,
        "timestamp": "2025-12-15T22:44:29.314743+00:00",
        "meta_object_name": "IRIDIUM 33 DEB",
        "meta_object_id": "1997-051NY",
        "meta_epoch": "2025-12-14T12:41:41.757792",
        "meta_mean_motion": 14.38494384,
        "meta_eccentricity": 0.0013625,
        "meta_inclination": 86.3309,
        "meta_ra_of_asc_node": 19.7092,
        "meta_arg_of_pericenter": 80.11,
        "meta_mean_anomaly": 280.1635,
        "meta_ephemeris_type": 0,
        "meta_classification_type": "U",
        "meta_norad_cat_id": 35052,
        "meta_element_set_no": 999,
        "meta_rev_at_epoch": 87301,
        "meta_bstar": 0.00021343381,
        "meta_mean_motion_dot": 6.72e-06,
        "meta_mean_motion_ddot": 0,
        "tle_line1": "1 35052U 97051NY  25348.52895553  .00000672  00000+0  21343-3 0  9991",
        "tle_line2": "2 35052  86.3309  19.7092 0013625  80.1100 280.1635 14.38494384873013"
      },
      "geometry": {
        "type": "Point",
        "coordinates": [
          -163.7406622493123,
          37.69240094325817
        ]
      }
    },
    {
      "type": "Feature",
      "properties": {
        "norad_id": 35080,
        "name": "IRIDIUM 33 DEB",
        "group": "iridium-33-debris",
        "lat": 31.920236177163527,
        "lon": -131.52597592524864,
        "alt_km": 568.1756628204839,
        "timestamp": "2025-12-15T22:44:29.314754+00:00",
        "meta_object_name": "IRIDIUM 33 DEB",
        "meta_object_id": "1997-051PF",
        "meta_epoch": "2025-12-14T21:50:31.542720",
        "meta_mean_motion": 14.86372619,
        "meta_eccentricity": 0.00598634,
        "meta_inclination": 86.2067,
        "meta_ra_of_asc_node": 51.3389,
        "meta_arg_of_pericenter": 172.1513,
        "meta_mean_anomaly": 188.0663,
        "meta_ephemeris_type": 0,
        "meta_classification_type": "U",
        "meta_norad_cat_id": 35080,
        "meta_element_set_no": 999,
        "meta_rev_at_epoch": 69720,
        "meta_bstar": 0.0037877537,
        "meta_mean_motion_dot": 0.00034651,
        "meta_mean_motion_ddot": 0,
        "tle_line1": "1 35080U 97051PF  25348.91008730  .00034651  00000+0  37878-2 0  9991",
        "tle_line2": "2 35080  86.2067  51.3389 0059863 172.1513 188.0663 14.86372619697200"
      },
      "geometry": {
        "type": "Point",
        "coordinates": [
          -131.52597592524864,
          31.920236177163527
        ]
      }
    },
    {
      "type": "Feature",
      "properties": {
        "norad_id": 35297,
        "name": "IRIDIUM 33 DEB",
        "group": "iridium-33-debris",
        "lat": 53.93959386899918,
        "lon": -123.58686103093446,
        "alt_km": 723.9434283897062,
        "timestamp": "2025-12-15T22:44:29.314764+00:00",
        "meta_object_name": "IRIDIUM 33 DEB",
        "meta_object_id": "1997-051PM",
        "meta_epoch": "2025-12-14T12:55:35.277600",
        "meta_mean_motion": 14.45168041,
        "meta_eccentricity": 0.00176283,
        "meta_inclination": 86.3867,
        "meta_ra_of_asc_node": 61.9926,
        "meta_arg_of_pericenter": 135.2135,
        "meta_mean_anomaly": 225.0494,
        "meta_ephemeris_type": 0,
        "meta_classification_type": "U",
        "meta_norad_cat_id": 35297,
        "meta_element_set_no": 999,
        "meta_rev_at_epoch": 70452,
        "meta_bstar": 0.0006336217,
        "meta_mean_motion_dot": 2.241e-05,
        "meta_mean_motion_ddot": 0,
        "tle_line1": "1 35297U 97051PM  25348.53860275  .00002241  00000+0  63362-3 0  9997",
        "tle_line2": "2 35297  86.3867  61.9926 0017628 135.2135 225.0494 14.45168041704521"
      },
      "geometry": {
        "type": "Point",
        "coordinates": [
          -123.58686103093446,
          53.93959386899918
        ]
      }
    },
    {
      "type": "Feature",
      "properties": {
        "norad_id": 35299,
        "name": "IRIDIUM 33 DEB",
        "group": "iridium-33-debris",
        "lat": 8.350648580602689,
        "lon": 32.33594944690683,
        "alt_km": 752.5845906492414,
        "timestamp": "2025-12-15T22:44:29.314774+00:00",
        "meta_object_name": "IRIDIUM 33 DEB",
        "meta_object_id": "1997-051PP",
        "meta_epoch": "2025-12-15T02:50:07.295136",
        "meta_mean_motion": 14.40874224,
        "meta_eccentricity": 0.00589595,
        "meta_inclination": 86.2887,
        "meta_ra_of_asc_node": 32.151,
        "meta_arg_of_pericenter": 94.8301,
        "meta_mean_anomaly": 294.7228,
        "meta_ephemeris_type": 0,
        "meta_classification_type": "U",
        "meta_norad_cat_id": 35299,
        "meta_element_set_no": 999,
        "meta_rev_at_epoch": 86365,
        "meta_bstar": 0.00057955204,
        "meta_mean_motion_dot": 1.916e-05,
        "meta_mean_motion_ddot": 0,
        "tle_line1": "1 35299U 97051PP  25349.11813999  .00001916  00000+0  57955-3 0  9994",
        "tle_line2": "2 35299  86.2887  32.1510 0058959  94.8301 294.7228 14.40874224863650"
      },
      "geometry": {
        "type": "Point",
        "coordinates": [
          32.33594944690683,
          8.350648580602689
        ]
      }
    },
    {
      "type": "Feature",
      "properties": {
        "norad_id": 35480,
        "name": "IRIDIUM 33 DEB",
        "group": "iridium-33-debris",
        "lat": -32.10965219878404,
        "lon": -154.18700513226202,
        "alt_km": 737.7036514626452,
        "timestamp": "2025-12-15T22:44:29.314785+00:00",
        "meta_object_name": "IRIDIUM 33 DEB",
        "meta_object_id": "1997-051QA",
        "meta_epoch": "2025-12-15T08:30:57.118464",
        "meta_mean_motion": 14.49774703,
        "meta_eccentricity": 0.00160032,
        "meta_inclination": 86.3571,
        "meta_ra_of_asc_node": 23.7786,
        "meta_arg_of_pericenter": 97.0457,
        "meta_mean_anomaly": 263.2568,
        "meta_ephemeris_type": 0,
        "meta_classification_type": "U",
        "meta_norad_cat_id": 35480,
        "meta_element_set_no": 999,
        "meta_rev_at_epoch": 87069,
        "meta_bstar": 0.00045738518,
        "meta_mean_motion_dot": 1.785e-05,
        "meta_mean_motion_ddot": 0,
        "tle_line1": "1 35480U 97051QA  25349.35482776  .00001785  00000+0  45739-3 0  9998",
        "tle_line2": "2 35480  86.3571  23.7786 0016003  97.0457 263.2568 14.49774703870695"
      },
      "geometry": {
        "type": "Point",
        "coordinates": [
          -154.18700513226202,
          -32.10965219878404
        ]
      }
    },
    {
      "type": "Feature",
      "properties": {
        "norad_id": 35484,
        "name": "IRIDIUM 33 DEB",
        "group": "iridium-33-debris",
        "lat": -42.8243056212334,
        "lon": 174.6260517423248,
        "alt_km": 581.9930084061234,
        "timestamp": "2025-12-15T22:44:29.314795+00:00",
        "meta_object_name": "IRIDIUM 33 DEB",
        "meta_object_id": "1997-051QE",
        "meta_epoch": "2025-12-13T07:15:48.307680",
        "meta_mean_motion": 14.98714194,
        "meta_eccentricity": 0.00237352,
        "meta_inclination": 86.3615,
        "meta_ra_of_asc_node": 352.4822,
        "meta_arg_of_pericenter": 123.3819,
        "meta_mean_anomaly": 236.9688,
        "meta_ephemeris_type": 0,
        "meta_classification_type": "U",
        "meta_norad_cat_id": 35484,
        "meta_element_set_no": 999,
        "meta_rev_at_epoch": 62024,
        "meta_bstar": 0.0048114888,
        "meta_mean_motion_dot": 0.00058609,
        "meta_mean_motion_ddot": 0,
        "tle_line1": "1 35484U 97051QE  25347.30264245  .00058609  00000+0  48115-2 0  9991",
        "tle_line2": "2 35484  86.3615 352.4822 0023735 123.3819 236.9688 14.98714194620242"
      },
      "geometry": {
        "type": "Point",
        "coordinates": [
          174.6260517423248,
          -42.8243056212334
        ]
      }
    },
    {
      "type": "Feature",
      "properties": {
        "norad_id": 35488,
        "name": "IRIDIUM 33 DEB",
        "group": "iridium-33-debris",
        "lat": 28.8979283930482,
        "lon": 117.36634383413099,
        "alt_km": 628.0270096543591,
        "timestamp": "2025-12-15T22:44:29.314805+00:00",
        "meta_object_name": "IRIDIUM 33 DEB",
        "meta_object_id": "1997-051QJ",
        "meta_epoch": "2025-12-15T07:29:31.144128",
        "meta_mean_motion": 14.8313163,
        "meta_eccentricity": 0.00296024,
        "meta_inclination": 86.3246,
        "meta_ra_of_asc_node": 299.6926,
        "meta_arg_of_pericenter": 34.6907,
        "meta_mean_anomaly": 325.6239,
        "meta_ephemeris_type": 0,
        "meta_classification_type": "U",
        "meta_norad_cat_id": 35488,
        "meta_element_set_no": 999,
        "meta_rev_at_epoch": 88304,
        "meta_bstar": 0.0010152976,
        "meta_mean_motion_dot": 8.367e-05,
        "meta_mean_motion_ddot": 0,
        "tle_line1": "1 35488U 97051QJ  25349.31216602  .00008367  00000+0  10153-2 0  9999",
        "tle_line2": "2 35488  86.3246 299.6926 0029602  34.6907 325.6239 14.83131630883043"
      },
      "geometry": {
        "type": "Point",
        "coordinates": [
          117.36634383413099,
          28.8979283930482
        ]
      }
    }
  ]
}